BEIDOU-3S IGSO-1S       
1 40549U 15019A   23259.61569847 -.00000132  00000+0  00000+0 0  9990
2 40549  51.0780 307.4281 0040791 196.4026 165.9895  1.00254116 30993
BEIDOU-3S M2S           
1 40748U 15037A   23260.21936467 -.00000076  00000+0  00000+0 0  9992
2 40748  55.6546 336.3317 0011745 242.5661 117.3784  1.86233294 55421
BEIDOU-3S M1S           
1 40749U 15037B   23259.95253649 -.00000076  00000+0  00000+0 0  9996
2 40749  55.6578 336.3269 0003618 297.5695  62.4575  1.86233000 55412
BEIDOU-3S IGSO-2S       
1 40938U 15053A   23259.99221250 -.00000108  00000+0  00000+0 0  9997
2 40938  50.7920 270.5973 0047725 194.8445 343.7893  1.00280628 29276
BEIDOU-3S M3S           
1 41315U 16006A   23259.92875174  .00000030  00000+0  00000+0 0  9992
2 41315  55.8698  96.9413 0002856 254.4508 105.6000  1.86231518 51898
BEIDOU-3 M1             
1 43001U 17069A   23259.49295605  .00000030  00000+0  00000+0 0  9993
2 43001  55.8513  96.4203 0007457 300.7730  59.2368  1.86231726 39892
BEIDOU-3 M2             
1 43002U 17069B   23258.89276465  .00000031  00000+0  00000+0 0  9991
2 43002  55.8504  96.4760 0005920 334.7882  25.2687  1.86231266 39873
BEIDOU-3 M7             
1 43107U 18003A   23259.71743305 -.00000079  00000+0  00000+0 0  9993
2 43107  55.1111 337.0599 0003250  77.7469 282.3515  1.86232568 38656
BEIDOU-3 M8             
1 43108U 18003B   23259.11868188 -.00000081  00000+0  00000+0 0  9998
2 43108  55.1045 337.0672 0004217 244.7754 115.2421  1.86231055 38641
BEIDOU-3 M4             
1 43207U 18018A   23259.02402306  .00000031  00000+0  00000+0 0  9994
2 43207  55.8096  96.5343 0004676  16.9850 343.1161  1.86231675 38024
BEIDOU-3 M3             
1 43208U 18018B   23258.01678243  .00000032  00000+0  00000+0 0  9999
2 43208  55.8085  96.5724 0005521 319.7345  40.3131  1.86231620 38000
BEIDOU-3 M9             
1 43245U 18029A   23259.85040990 -.00000076  00000+0  00000+0 0  9996
2 43245  55.0049 334.7885 0001487 221.3952 138.6582  1.86232845 37197
BEIDOU-3 M10            
1 43246U 18029B   23259.78042521 -.00000076  00000+0  00000+0 0  9991
2 43246  55.0022 334.8190 0002743 351.0147   9.0450  1.86233045 37189
BEIDOU-3 M5             
1 43581U 18062A   23259.46366991  .00000022  00000+0  00000+0 0  9995
2 43581  54.1757 216.4992 0005015 283.9859  75.9221  1.86232018 34925
BEIDOU-3 M6             
1 43582U 18062B   23259.32972636  .00000020  00000+0  00000+0 0  9998
2 43582  54.1753 216.4934 0005260 359.0220   0.9401  1.86229881 34929
BEIDOU-3 M12            
1 43602U 18067A   23259.26591719  .00000019  00000+0  00000+0 0  9996
2 43602  54.2629 215.1518 0007112  13.6156 346.3671  1.86231562 34406
BEIDOU-3 M11            
1 43603U 18067B   23259.39974471  .00000021  00000+0  00000+0 0  9994
2 43603  54.2599 215.1129 0004198 359.0345   0.9289  1.86231516 34439
BEIDOU-3 M13            
1 43622U 18072A   23259.35870711  .00000030  00000+0  00000+0 0  9999
2 43622  55.7797  96.0626 0004224 297.2250  62.8153  1.86231666 33940
BEIDOU-3 M14            
1 43623U 18072B   23259.22416363  .00000030  00000+0  00000+0 0  9995
2 43623  55.7814  96.0598 0002790 349.9977  10.0806  1.86231677 33948
BEIDOU-3 M16            
1 43647U 18078A   23259.38686896 -.00000077  00000+0  00000+0 0  9996
2 43647  54.9012 334.9254 0005911   7.2190 352.8535  1.86227391 33446
BEIDOU-3 M15            
1 43648U 18078B   23258.98021018 -.00000079  00000+0  00000+0 0  9993
2 43648  54.8970 334.9433 0002756  18.2489 341.8243  1.86232375 33469
BEIDOU-3 G1             
1 43683U 18085A   23259.98168942 -.00000272  00000+0  00000+0 0  9994
2 43683   1.5396 123.5382 0003019 352.1691  13.4291  1.00275064 17984
BEIDOU-3 M17            
1 43706U 18093A   23259.12812690  .00000018  00000+0  00000+0 0  9998
2 43706  54.2583 216.4288 0010115 281.9218  77.9273  1.86232105 32827
BEIDOU-3 M18            
1 43707U 18093B   23258.99422241  .00000016  00000+0  00000+0 0  9990
2 43707  54.2590 216.4250 0008451 307.4929  52.3924  1.86229927 32815
BEIDOU-3 IGSO-1         
1 44204U 19023A   23259.72324465 -.00000194  00000+0  00000+0 0  9996
2 44204  57.2390  48.1138 0023865 195.1232 132.4730  1.00279186 16285
BEIDOU-3 IGSO-2         
1 44337U 19035A   23259.40125659 -.00000134  00000+0  00000+0 0  9999
2 44337  55.1520 167.6869 0032828 196.5042 255.0677  1.00271182 15598
BEIDOU-3 M24            
1 44542U 19061A   23259.06584550  .00000017  00000+0  00000+0 0  9996
2 44542  54.4855 216.6629 0008459 341.6648  18.2669  1.86231558 27079
BEIDOU-3 M23            
1 44543U 19061B   23259.51192623  .00000023  00000+0  00000+0 0  9990
2 44543  54.4839 216.6172 0005925 326.2191 244.6973  1.86231942 27072
BEIDOU-3 IGSO-3         
1 44709U 19073A   23258.49287926 -.00000143  00000+0  00000+0 0  9998
2 44709  56.5156 291.6337 0035244 190.2455 169.7763  1.00278777 14372
BEIDOU-3 M22            
1 44793U 19078A   23257.30041595 -.00000085  00000+0  00000+0 0  9990
2 44793  54.7508 334.9633 0004774  17.2182 342.8571  1.86232401 25893
BEIDOU-3 M21            
1 44794U 19078B   23259.04180993 -.00000079  00000+0  00000+0 0  9993
2 44794  54.7236 334.8849 0002741   5.3119 354.7544  1.86232788 25935
BEIDOU-3 M19            
1 44864U 19090A   23259.01993897  .00000031  00000+0  00000+0 0  9994
2 44864  55.7136  96.2604 0015280 275.2238 263.9509  1.86231982 25514
BEIDOU-3 M20            
1 44865U 19090B   23259.74345645  .00000030  00000+0  00000+0 0  9996
2 44865  55.7160  96.2691 0013101 290.5006 103.5414  1.86231912 25507
BEIDOU-3 G2             
1 45344U 20017A   23260.39970843 -.00000135  00000+0  00000+0 0  9994
2 45344   2.0562  16.8191 0003128 161.0663  42.1356  1.00271969 13202
BEIDOU-3 G3             
1 45807U 20040A   23259.62741347 -.00000351  00000+0  00000+0 0  9993
2 45807   0.6071 346.1715 0005988 328.4730  17.1121  1.00269756 11993
BEIDOU-3 G4             
1 56564U 23066A   23259.48405639 -.00000112  00000+0  00000+0 0  9996
2 56564   2.8169 288.7487 0006711 214.6691 186.0355  1.00273120  1322
